{"type": "FeatureCollection", "features": [{"type": "Feature", "geometry": {"type": "MultiPoint", "coordinates": [[-47.81653894613636, -14.17961856707503]]}, "properties": {"data_infracao": "2016-11-29", "numero_processo": "112062016", "autuado": "AGENCIA GOIANA DE TRANSPORTES E OBRAS", "descricao": "Por deixar de atender as exigências legais ou regulamentais quando devidamente notificado pela autoridade ambiental competente no prazo concedido, visando a regularização, correção ou adoção de medidas de controle para cessar a degradação ambien", "area_ha": 0.0, "status": "Pago Dívida Ativa"}}, {"type": "Feature", "geometry": {"type": "MultiPoint", "coordinates": [[-47.81653894613636, -14.17961856707503]]}, "properties": {"data_infracao": "2016-12-13", "numero_processo": "117212016", "autuado": "AGENCIA GOIANA DE TRANSPORTES E OBRAS", "descricao": "Por deixar de atender a exigências legais.", "area_ha": 0.0, "status": "Pendente de Julgamento"}}, {"type": "Feature", "geometry": {"type": "MultiPoint", "coordinates": [[-47.49118200921077, -14.13758212055389]]}, "properties": {"data_infracao": "2017-06-02", "numero_processo": "54062017", "autuado": "CELG DISTRIBUICAO S/A", "descricao": "Desmatar fora de RL.", "area_ha": 0.0, "status": "Julgado em definitivo 2ª Instância - Dívida ativa"}}, {"type": "Feature", "geometry": {"type": "MultiPoint", "coordinates": [[-47.49275538079557, -14.13499102114769]]}, "properties": {"data_infracao": "2017-06-02", "numero_processo": "54062017", "autuado": "CELG DISTRIBUICAO S/A", "descricao": "Desmatar fora de RL.", "area_ha": 0.0, "status": "Julgado em definitivo 2ª Instância - Dívida ativa"}}, {"type": "Feature", "geometry": {"type": "MultiPoint", "coordinates": [[-47.49716545016422, -14.13190970691988]]}, "properties": {"data_infracao": "2017-06-02", "numero_processo": "54062017", "autuado": "CELG DISTRIBUICAO S/A", "descricao": "Instalar rede de distribuição de energia elétrica.", "area_ha": 0.0, "status": "Julgado em definitivo 2ª Instância - Dívida ativa"}}, {"type": "Feature", "geometry": {"type": "MultiPoint", "coordinates": [[-47.49501168738463, -14.25144632828249]]}, "properties": {"data_infracao": "2017-08-10", "numero_processo": "87312017", "descricao": "Construir tanque escavado.", "area_ha": 0.0, "status": "Julgado em definitivo 1ª Instância - Improcedente"}}, {"type": "Feature", "geometry": {"type": "MultiPoint", "coordinates": [[-47.49619306809021, -14.25106356197554]]}, "properties": {"data_infracao": "2017-08-10", "numero_processo": "87312017", "descricao": "Construir tanque escavado.", "area_ha": 0.0, "status": "Julgado em definitivo 1ª Instância - Improcedente"}}, {"type": "Feature", "geometry": {"type": "MultiPoint", "coordinates": [[-47.56830742492116, -14.39668037098747]]}, "properties": {"data_infracao": "2018-08-24", "numero_processo": "76722018", "autuado": "AGROPECUARIA NOVA ERA LTDA", "descricao": "Funcionar pivô sem licença.", "area_ha": 0.0, "status": "Aguardando Intimação para Composição"}}, {"type": "Feature", "geometry": {"type": "MultiPoint", "coordinates": [[-47.59979568732388, -14.38513444166533]]}, "properties": {"data_infracao": "2018-08-24", "numero_processo": "76722018", "autuado": "AGROPECUARIA NOVA ERA LTDA", "descricao": "Funcionar pivô sem licença.", "area_ha": 0.0, "status": "Aguardando Intimação para Composição"}}, {"type": "Feature", "geometry": {"type": "MultiPoint", "coordinates": [[-47.58092363409253, -14.40093321815777]]}, "properties": {"data_infracao": "2018-08-24", "numero_processo": "76722018", "autuado": "AGROPECUARIA NOVA ERA LTDA", "descricao": "Funcionar pivô sem licença.", "area_ha": 0.0, "status": "Aguardando Intimação para Composição"}}, {"type": "Feature", "geometry": {"type": "MultiPoint", "coordinates": [[-47.55736131330882, -14.37546136944798]]}, "properties": {"data_infracao": "2018-08-24", "numero_processo": "76722018", "autuado": "AGROPECUARIA NOVA ERA LTDA", "descricao": "Funcionar pivô sem licença.", "area_ha": 0.0, "status": "Aguardando Intimação para Composição"}}, {"type": "Feature", "geometry": {"type": "MultiPoint", "coordinates": [[-47.57649222839452, -14.41534506689513]]}, "properties": {"data_infracao": "2018-08-24", "numero_processo": "76722018", "autuado": "AGROPECUARIA NOVA ERA LTDA", "descricao": "Funcionar pivô sem licença.", "area_ha": 0.0, "status": "Aguardando Intimação para Composição"}}, {"type": "Feature", "geometry": {"type": "MultiPoint", "coordinates": [[-47.55136326097571, -14.39077518406846]]}, "properties": {"data_infracao": "2018-08-24", "numero_processo": "76722018", "autuado": "AGROPECUARIA NOVA ERA LTDA", "descricao": "Funcionar pivô sem licença.", "area_ha": 0.0, "status": "Aguardando Intimação para Composição"}}, {"type": "Feature", "geometry": {"type": "MultiPoint", "coordinates": [[-47.55766485532745, -14.41999448044641]]}, "properties": {"data_infracao": "2018-08-24", "numero_processo": "76722018", "autuado": "AGROPECUARIA NOVA ERA LTDA", "descricao": "Funcionar pivô sem licença.", "area_ha": 0.0, "status": "Aguardando Intimação para Composição"}}, {"type": "Feature", "geometry": {"type": "MultiPoint", "coordinates": [[-47.58980376725786, -14.3817661836521]]}, "properties": {"data_infracao": "2018-08-24", "numero_processo": "76722018", "autuado": "AGROPECUARIA NOVA ERA LTDA", "descricao": "Instalar pivô sem autorização.", "area_ha": 0.0, "status": "Aguardando Intimação para Composição"}}, {"type": "Feature", "geometry": {"type": "MultiPoint", "coordinates": [[-47.5428954731647, -14.37876108213536]]}, "properties": {"data_infracao": "2018-08-24", "numero_processo": "76722018", "autuado": "AGROPECUARIA NOVA ERA LTDA", "descricao": "Instalar pivô sem autorização.", "area_ha": 0.0, "status": "Aguardando Intimação para Composição"}}, {"type": "Feature", "geometry": {"type": "MultiPoint", "coordinates": [[-47.5952115384742, -14.39503134297477]]}, "properties": {"data_infracao": "2018-08-24", "numero_processo": "76722018", "autuado": "AGROPECUARIA NOVA ERA LTDA", "descricao": "Funcionar pivô sem licença.", "area_ha": 0.0, "status": "Aguardando Intimação para Composição"}}, {"type": "Feature", "geometry": {"type": "MultiPoint", "coordinates": [[-47.56572889520044, -14.41109003332531]]}, "properties": {"data_infracao": "2018-08-24", "numero_processo": "76722018", "autuado": "AGROPECUARIA NOVA ERA LTDA", "descricao": "Funcionar pivô sem licença.", "area_ha": 0.0, "status": "Aguardando Intimação para Composição"}}, {"type": "Feature", "geometry": {"type": "MultiPoint", "coordinates": [[-47.499274658153595, -14.136856631434327]]}, "properties": {"data_infracao": "2020-02-07", "numero_processo": "4472020", "descricao": "Área de vegetação nativa degradada para construção de estrutura de alvenaria", "area_ha": 0.0, "status": "Julgado em definitivo 1ª Instância - Dívida ativa"}}, {"type": "Feature", "geometry": {"type": "MultiPoint", "coordinates": [[-47.812777777777775, -14.18361111111111]]}, "properties": {"data_infracao": "2020-02-10", "numero_processo": "4762022", "descricao": "Captação de recurso hídrico sem outorga através de poço perfurado.", "area_ha": 0.0}}, {"type": "Feature", "geometry": {"type": "MultiPoint", "coordinates": [[-47.57333333333334, -14.1875]]}, "properties": {"data_infracao": "2020-02-10", "numero_processo": "4822022", "descricao": "Captação de recursos hídricos sem a devida outorga através de poço perfurado.", "area_ha": 0.0}}, {"type": "Feature", "geometry": {"type": "MultiPoint", "coordinates": [[-47.481388888888894, -14.275]]}, "properties": {"data_infracao": "2020-08-24", "numero_processo": "32122020", "descricao": "Por realizar captação de águas subterrâneas sem a devida outorga de direito de uso", "area_ha": 0.0}}, {"type": "Feature", "geometry": {"type": "MultiPoint", "coordinates": [[-47.165957918611845, -14.121957505503138]]}, "properties": {"data_infracao": "2020-08-25", "numero_processo": "33942020", "descricao": "motosserra sem licença ou registro.", "area_ha": 0.0, "status": "Aguardando Intimação para Composição"}}, {"type": "Feature", "geometry": {"type": "MultiPoint", "coordinates": [[-47.22916666666667, -14.1425]]}, "properties": {"data_infracao": "2020-08-25", "numero_processo": "32092020", "descricao": "Por realizar derivação de recursos hídricos por meio de canal escavado sem a devida outorga de direito de uso", "area_ha": 0.0, "status": "Aguardando Intimação para Composição"}}, {"type": "Feature", "geometry": {"type": "MultiPoint", "coordinates": [[-47.623943086603205, -14.164244763641882]]}, "properties": {"data_infracao": "2020-08-26", "numero_processo": "32902020", "descricao": "Por realizar obra para implantação de atividade de hotelaria/hospedagem (ecológica) sem a devida licença ou autorização ambiental do órgão competente.", "area_ha": 0.0, "status": "Prescrito"}}, {"type": "Feature", "geometry": {"type": "MultiPoint", "coordinates": [[-47.62945426706069, -14.167689368249247]]}, "properties": {"data_infracao": "2020-08-26", "numero_processo": "34402020", "descricao": "Por instalar/fazer funcionar  obra/atividade potencialmente poluidora sem a licença do órgão ambiental competente. Realizar parcelamento de propriedade rural de área de 4,146ha e comercializando os lotes, no interior da APA do Pouso Alto", "area_ha": 0.0, "status": "Aguardando Intimação para Composição"}}, {"type": "Feature", "geometry": {"type": "MultiPoint", "coordinates": [[-47.498467056611084, -14.136657243553573]]}, "properties": {"data_infracao": "2020-08-27", "numero_processo": "31702020", "autuado": "PIERCY EMPREENDIMENTOS LTDA - ME", "descricao": "Por realizar captação de águas subterrâneas sem a devida outorga de direito de uso", "area_ha": 0.0, "status": "Aguardando Intimação para Composição"}}, {"type": "Feature", "geometry": {"type": "MultiPoint", "coordinates": [[-47.654444444444444, -14.140555555555554]]}, "properties": {"data_infracao": "2020-08-27", "numero_processo": "32142020", "descricao": "Por realizar captação de águas subterrâneas sem a devida outorga/declaração de direito de uso.", "area_ha": 0.0, "status": "Prescrito"}}, {"type": "Feature", "geometry": {"type": "MultiPoint", "coordinates": [[-47.58638888888888, -14.14833333333333]]}, "properties": {"data_infracao": "2020-08-27", "numero_processo": "31632020", "descricao": "Por realizar captação direta de recursos hídricos utilizando conjnto matobomba WEG sem a devida outorga/declaração de direito de uso. A infração foi considerada grave. A captação, no momento da fiscalização, é realizada no Rio dos Couros.", "area_ha": 0.0}}, {"type": "Feature", "geometry": {"type": "MultiPoint", "coordinates": [[-47.58323779373188, -14.147314848937903]]}, "properties": {"data_infracao": "2020-08-27", "numero_processo": "32082020", "descricao": "Por realizar captação de água subterrâneas sem a devida declaração/outorga de direito de uso.", "area_ha": 0.0}}, {"type": "Feature", "geometry": {"type": "MultiPoint", "coordinates": [[-47.58472358996693, -14.14444419422768]]}, "properties": {"data_infracao": "2020-08-27", "numero_processo": "31812020", "descricao": "Por realizar captação direta de recursos hídricos sem a devida outorga de direito de uso", "area_ha": 0.0, "status": "Aguardando Intimação para Composição"}}, {"type": "Feature", "geometry": {"type": "MultiPoint", "coordinates": [[-47.659444444444446, -14.143333333333333]]}, "properties": {"data_infracao": "2020-08-27", "numero_processo": "32072020", "descricao": "Por realizar captação de águas subterrâneas sem a devida declaração/outorga de direito de uso", "area_ha": 0.0, "status": "Aguardando Intimação para Composição"}}, {"type": "Feature", "geometry": {"type": "MultiPoint", "coordinates": [[-47.585, -14.150555555555556]]}, "properties": {"data_infracao": "2020-08-27", "numero_processo": "32062020", "descricao": "Por realizar atividade de hotelaria/hospedagem (ecológica) sem a devida licença ou autorização ambiental do órgão competente", "area_ha": 0.0, "status": "Pendente de Julgamento - Pago"}}, {"type": "Feature", "geometry": {"type": "MultiPoint", "coordinates": [[-47.532313888888886, -14.104575]]}, "properties": {"data_infracao": "2020-08-29", "numero_processo": "34432020", "descricao": "Por realizar captação de água subterrânea sem a devida outorga do órgão ambiental competente.", "area_ha": 0.0, "status": "Pendente de Julgamento"}}, {"type": "Feature", "geometry": {"type": "MultiPoint", "coordinates": [[-47.61855172799889, -14.16396945785042]]}, "properties": {"data_infracao": "2020-08-29", "numero_processo": "32132020", "descricao": "Por realizar captação de águas subterrâneas sem a devida declaração/outorga de direito de uso.", "area_ha": 0.0, "status": "Prescrito"}}, {"type": "Feature", "geometry": {"type": "MultiPoint", "coordinates": [[-47.61814100515657, -14.16367583661978]]}, "properties": {"data_infracao": "2020-08-29", "numero_processo": "31712020", "descricao": "Poluição ou Degradação Ambiental - Implantação e/ou operação de atividade potencialmente poluidora", "area_ha": 0.0, "status": "Prescrito"}}, {"type": "Feature", "geometry": {"type": "MultiPoint", "coordinates": [[-47.61817772248083, -14.16364833308139]]}, "properties": {"data_infracao": "2020-08-29", "numero_processo": "32202020", "descricao": "Por fazer funcionar atividade de oficina mecânica realizada sem o devido licenciamento ambiental às margens da rodovia GO-239 na coordenada UTM 23S 217375/8432594, sem o devido licenciamento ambiental.", "area_ha": 0.0, "status": "Prescrito"}}, {"type": "Feature", "geometry": {"type": "MultiPoint", "coordinates": [[-47.532313888888886, -14.104575]]}, "properties": {"data_infracao": "2020-08-29", "numero_processo": "34252020", "descricao": "Por realizar parcelamento do solo sem a devida autorização emitida pelo órgão ambiental competente. Área de 2 ha, em Alto Paraíso, interior da APA de Pouso Alto", "area_ha": 0.0, "status": "Pendente de Julgamento"}}, {"type": "Feature", "geometry": {"type": "MultiPoint", "coordinates": [[-47.57027777777778, -14.146944444444443]]}, "properties": {"data_infracao": "2020-08-29", "numero_processo": "32172020", "descricao": "Por realizar derivação de recursos hídricos por meio de mangueira sem a devida outorga/declaração de direito de uso", "area_ha": 0.0, "status": "Prescrito"}}, {"type": "Feature", "geometry": {"type": "MultiPoint", "coordinates": [[-47.541333333333334, -14.091211111111111]]}, "properties": {"data_infracao": "2020-08-29", "numero_processo": "34332020", "descricao": "Por realizar captação de água subterrânea utilizando bomba submersa sem a devida outorga de direito de uso.", "area_ha": 0.0}}, {"type": "Feature", "geometry": {"type": "MultiPoint", "coordinates": [[-47.532313888888886, -14.104713888888888]]}, "properties": {"data_infracao": "2020-08-29", "numero_processo": "33792020", "descricao": "Realizar parcelamento do solo / loteamento sem a devida licença emitida pelo órgão ambiental competente. A área está localizada no interior da unidade de conservação de uso sustentável APA de Pouso Alto.", "area_ha": 0.0, "status": "Prescrito"}}, {"type": "Feature", "geometry": {"type": "MultiPoint", "coordinates": [[-47.5285, -14.098444444444445]]}, "properties": {"data_infracao": "2020-08-29", "numero_processo": "33832020", "descricao": "Realizar captação de água subterrânea utilizando bomba submersa sem a devida outorga de direito de uso.", "area_ha": 0.0, "status": "Aguardando Intimação para Composição"}}, {"type": "Feature", "geometry": {"type": "MultiPoint", "coordinates": [[-47.511273149947684, -14.181532017758652]]}, "properties": {"data_infracao": "2020-08-30", "numero_processo": "31722020", "descricao": "Por realizar obra para implantação de atividade de hotelaria/hospedagem sem a devida licença ou autorização ambiental.", "area_ha": 0.0}}, {"type": "Feature", "geometry": {"type": "MultiPoint", "coordinates": [[-47.6368805403985, -14.13169100553773]]}, "properties": {"data_infracao": "2020-08-30", "numero_processo": "31612020", "descricao": "Por realizar parcelamento de solo para fins urbanos sem a devida autorização/licença ambiental, em área de 4,8 ha dentro da APA do Pouso Alto.", "area_ha": 0.0, "status": "Aguardando Intimação para Composição"}}, {"type": "Feature", "geometry": {"type": "MultiPoint", "coordinates": [[-47.6368805403985, -14.13169100553773]]}, "properties": {"data_infracao": "2020-08-30", "numero_processo": "31602020", "descricao": "Por relalizar captação de águas subterrâneas sem a devida declaração/outorga de direito de uso. O uso observado tem por finalidade abastecimento domiciliar.", "area_ha": 0.0}}, {"type": "Feature", "geometry": {"type": "MultiPoint", "coordinates": [[-47.62166666666667, -14.2075]]}, "properties": {"data_infracao": "2020-08-31", "numero_processo": "34452020", "descricao": "Destruir danificar floresta ou demais formas de vegetação em área considerada de preservação permanente, em área aproximada de 600m2, com abertura de uma estrada as margens do rio dos couros, com dimensões de 300 de comprimento e 2m de largura, se", "area_ha": 0.0}}, {"type": "Feature", "geometry": {"type": "MultiPoint", "coordinates": [[-47.625277777777775, -14.197222222222223]]}, "properties": {"data_infracao": "2020-08-31", "numero_processo": "33812020", "descricao": "Vegetação - Desmatamento / Supressão de vegetação nativa", "area_ha": 0.0}}, {"type": "Feature", "geometry": {"type": "MultiPoint", "coordinates": [[-47.838055555555556, -14.193055555555556]]}, "properties": {"data_infracao": "2020-09-01", "numero_processo": "34342020", "descricao": "Por fazer funcionar empreendimento hoteleiro, denominado Pousada Morada do Sol, sem o devido licenciamento ou autorização emitida pelo órgão competente. Área localizada no interior da APA de Pouso Alto.", "area_ha": 0.0, "status": "Julgado em definitivo 1ª Instância - Improcedente"}}, {"type": "Feature", "geometry": {"type": "MultiPoint", "coordinates": [[-47.626222222222225, -14.21116111111111]]}, "properties": {"data_infracao": "2020-09-01", "numero_processo": "34392020", "descricao": "Por fazer funcionar atividade de complexo de lazer/turismo na fazenda Vale Dourado, sem o devido licenciamento. A área localiza-se no interior da APA do Pouso Alto", "area_ha": 0.0, "status": "Aguardando Intimação para Composição"}}, {"type": "Feature", "geometry": {"type": "MultiPoint", "coordinates": [[-47.78802550638632, -14.184883829335424]]}, "properties": {"data_infracao": "2020-09-01", "numero_processo": "34442020", "descricao": "Promover a construção de um mirante e uma tiroleza em área de preservação permanente, nas margens do córrego vale da lua. Área no interior da APA de Pouso Alto", "area_ha": 0.0, "status": "Prescrito"}}, {"type": "Feature", "geometry": {"type": "MultiPoint", "coordinates": [[-47.626222222222225, -14.21116111111111]]}, "properties": {"data_infracao": "2020-09-01", "numero_processo": "33852020", "descricao": "Por realizar captação de recurso hídrico sem a devida declaração / outorga de direito de uso emitida pelo órgão ambiental competente.", "area_ha": 0.0, "status": "Aguardando Intimação para Composição"}}, {"type": "Feature", "geometry": {"type": "MultiPoint", "coordinates": [[-47.60666666666667, -14.356388888888889]]}, "properties": {"data_infracao": "2020-09-02", "numero_processo": "32262020", "descricao": "Por realizar derivação de recursos hídricos por meio de canal escavado (rego dágua) sem a devida outorga de direito de uso.", "area_ha": 0.0, "status": "Aguardando Intimação para Composição"}}, {"type": "Feature", "geometry": {"type": "MultiPoint", "coordinates": [[-47.63943033623086, -14.15531241789011]]}, "properties": {"data_infracao": "2020-09-03", "numero_processo": "32602020", "descricao": "Por realizar captação de água subterrânea utilizando bomba submissão sem a devida declaração/autorização de direito de uso.", "area_ha": 0.0, "status": "Pendente de Julgamento"}}, {"type": "Feature", "geometry": {"type": "MultiPoint", "coordinates": [[-47.660858336581065, -14.170134144788639]]}, "properties": {"data_infracao": "2020-09-03", "numero_processo": "34212020", "descricao": "Por exercer atividade de hospedagem sem a devida licença ou autorização ambiental do órgão competente.", "area_ha": 0.0, "status": "Julgado em definitivo 2ª Instância - Dívida ativa"}}, {"type": "Feature", "geometry": {"type": "MultiPoint", "coordinates": [[-47.537298, -14.1107666]]}, "properties": {"data_infracao": "2020-09-03", "numero_processo": "34382020", "autuado": "INSTITUTO BIORREGIONAL DO CERRADO - IBC", "descricao": "Por realizar parcelamento de solo sem o devido licenciamento emitido pelo órgão ambiental competente. Área no interior da APA do Pouso Alto", "area_ha": 0.0, "status": "Aguardando Intimação para Composição"}}, {"type": "Feature", "geometry": {"type": "MultiPoint", "coordinates": [[-47.6350075596735, -14.169155040654147]]}, "properties": {"data_infracao": "2020-09-03", "numero_processo": "32882020", "descricao": "Por realizar ocupação para fins urbanos, em uma área rural de 9,3 hectares, sem a devida licença ambiental.", "area_ha": 0.0, "status": "Aguardando Intimação para Composição"}}, {"type": "Feature", "geometry": {"type": "MultiPoint", "coordinates": [[-47.537298, -14.1107666]]}, "properties": {"data_infracao": "2020-09-03", "numero_processo": "34372020", "autuado": "INSTITUTO BIORREGIONAL DO CERRADO - IBC", "descricao": "Por realizar captação de água subterrânea utilizando bomba submersa sem a devida outorga de direito de uso.", "area_ha": 0.0, "status": "Aguardando Intimação para Composição"}}, {"type": "Feature", "geometry": {"type": "MultiPoint", "coordinates": [[-47.634808, -14.168393]]}, "properties": {"data_infracao": "2020-09-03", "numero_processo": "32252020", "descricao": "Por realizar captação direta de recursos hídricos sem a devida outorga de direito de uso no Rio das Cobras", "area_ha": 0.0}}, {"type": "Feature", "geometry": {"type": "MultiPoint", "coordinates": [[-47.66697699553294, -14.140717274451827]]}, "properties": {"data_infracao": "2020-09-09", "numero_processo": "34272020", "descricao": "Realizar captação em águas subterrâneas sem a devida outorga de direito de uso concedida pela autoridade ambiental", "area_ha": 0.0, "status": "Aguardando Intimação para Composição"}}, {"type": "Feature", "geometry": {"type": "MultiPoint", "coordinates": [[-47.62352960319196, -14.166128250731997]]}, "properties": {"data_infracao": "2020-09-09", "numero_processo": "33642020", "descricao": "Por realizar captação de águas subterrâneas e em corpo hídrico sem a devida declaração/outorga de direito de uso.", "area_ha": 0.0}}, {"type": "Feature", "geometry": {"type": "MultiPoint", "coordinates": [[-47.66694259309256, -14.140148564264724]]}, "properties": {"data_infracao": "2020-09-09", "numero_processo": "33652020", "descricao": "Por realizar parcelamento de solo em área de 4 hectares e por realizar captação de águas subterrâneas sem a devida licença ambiental", "area_ha": 0.0, "status": "Aguardando Intimação para Composição"}}, {"type": "Feature", "geometry": {"type": "MultiPoint", "coordinates": [[-47.58297429428788, -14.14611619410352]]}, "properties": {"data_infracao": "2020-09-15", "numero_processo": "32932020", "descricao": "Por exercer atividade de acomodação/hospedagem sem a devida licença/autorização do órgão ambiental competente", "area_ha": 0.0, "status": "Aguardando Intimação para Composição"}}, {"type": "Feature", "geometry": {"type": "MultiPoint", "coordinates": [[-47.80878163209385, -14.1781470787863]]}, "properties": {"data_infracao": "2020-10-30", "numero_processo": "39892020", "autuado": "PREFEITURA MUNICIPAL DE ALTO PARAISO DE GOIAS", "descricao": "Disposição final de resíduos sólidos sem licença", "area_ha": 0.0, "status": "Prescrito"}}, {"type": "Feature", "geometry": {"type": "MultiPoint", "coordinates": [[-47.74084166666667, -14.283666666666667]]}, "properties": {"data_infracao": "2020-11-20", "numero_processo": "42102020", "descricao": "Danificar 1,082 ha de vegetação nativa, através de aberturas de vias de acesso, sem autorização da autoriadade ambiental competente.", "area_ha": 0.0}}, {"type": "Feature", "geometry": {"type": "MultiPoint", "coordinates": [[-47.58701111111111, -14.187011111111111]]}, "properties": {"data_infracao": "2021-01-29", "numero_processo": "7602021", "autuado": "INACIA COMERCIO E SERVICOS DE HOTELARIA LTDA -ME", "descricao": "Instalar e funcionar empreendimento sem licenciamento ambiental", "area_ha": 0.0}}, {"type": "Feature", "geometry": {"type": "MultiPoint", "coordinates": [[-47.528326388888885, -14.104526388888889]]}, "properties": {"data_infracao": "2021-08-23", "numero_processo": "31852021", "autuado": "AUTO PECAS E SERVICOS LIDER EIRELI", "descricao": "6514/08", "area_ha": 0.0}}, {"type": "Feature", "geometry": {"type": "MultiPoint", "coordinates": [[-47.66694259309256, -14.140148564264724]]}, "properties": {"data_infracao": "2021-09-16", "numero_processo": "32272021", "descricao": "Por descumprir o Termo de Embargo n° 3081-A, referente a construção na área embargada.", "area_ha": 0.0}}, {"type": "Feature", "geometry": {"type": "MultiPoint", "coordinates": [[-47.7906146795594, -14.187662732856705]]}, "properties": {"data_infracao": "2021-10-06", "numero_processo": "29142021", "descricao": "ocupação de APP impedindo a regeneração natural", "area_ha": 0.0}}, {"type": "Feature", "geometry": {"type": "MultiPoint", "coordinates": [[-47.78886261873655, -14.18671668508446]]}, "properties": {"data_infracao": "2021-10-06", "numero_processo": "27662021", "descricao": "danificação de vegetação sem licença para instalação de camping", "area_ha": 0.0}}, {"type": "Feature", "geometry": {"type": "MultiPoint", "coordinates": [[-47.812777777777775, -14.19111111111111]]}, "properties": {"data_infracao": "2022-01-31", "numero_processo": "4232022", "descricao": "Por realizar captação de recursos hídricos sem a devida outorga ou certificado de uso dispensado de outorga.", "area_ha": 0.0}}, {"type": "Feature", "geometry": {"type": "MultiPoint", "coordinates": [[-47.6306, -14.1648]]}, "properties": {"data_infracao": "2022-02-02", "numero_processo": "4962022", "descricao": "art 57 do Dec 6514/08", "area_ha": 0.0}}, {"type": "Feature", "geometry": {"type": "MultiPoint", "coordinates": [[-47.6306, -14.1648]]}, "properties": {"data_infracao": "2022-02-02", "numero_processo": "4952022", "descricao": "art. 13 13123/97", "area_ha": 0.0}}, {"type": "Feature", "geometry": {"type": "MultiPoint", "coordinates": [[-47.81198, -14.19136]]}, "properties": {"data_infracao": "2022-02-02", "numero_processo": "4912022", "descricao": "art 66, 6514/08", "area_ha": 0.0}}, {"type": "Feature", "geometry": {"type": "MultiPoint", "coordinates": [[-47.6306, -14.1648]]}, "properties": {"data_infracao": "2022-02-02", "numero_processo": "4982022", "descricao": "art 47 6514/08", "area_ha": 0.0}}, {"type": "Feature", "geometry": {"type": "MultiPoint", "coordinates": [[-47.575444, -14.138556]]}, "properties": {"data_infracao": "2022-02-05", "numero_processo": "5672022", "descricao": "Por realizar captação sem a respectiva outorga de direito de uso, em poço tubular profundo.", "area_ha": 0.0}}, {"type": "Feature", "geometry": {"type": "MultiPoint", "coordinates": [[-47.811925, -14.182947222222221]]}, "properties": {"data_infracao": "2022-02-10", "numero_processo": "4782022", "descricao": "Promover parcelamento do solo em área inferior a FMP sem autorização do órgão ambiental, referente a aquisição de área de 2,54 hectares", "area_ha": 0.0, "status": "Julgado em definitivo 1ª Instância - Improcedente"}}, {"type": "Feature", "geometry": {"type": "MultiPoint", "coordinates": [[-47.810561111111106, -14.184622222222222]]}, "properties": {"data_infracao": "2022-02-10", "numero_processo": "4792022", "descricao": "Promover parcelamento do solo em área inferior a FMP sem autorização do órgão ambiental, referente a aquisição de área de 2 hectares", "area_ha": 0.0}}, {"type": "Feature", "geometry": {"type": "MultiPoint", "coordinates": [[-47.81116944444444, -14.183922222222222]]}, "properties": {"data_infracao": "2022-02-10", "numero_processo": "4802022", "descricao": "Promover parcelamento do solo em área inferior a FMP sem autorização do órgão ambiental, referente a aquisição de área de 1,56 hectares", "area_ha": 0.0, "status": "Julgado em definitivo 1ª Instância - Improcedente"}}, {"type": "Feature", "geometry": {"type": "MultiPoint", "coordinates": [[-47.7878027560049, -14.1871083875019]]}, "properties": {"data_infracao": "2022-08-12", "numero_processo": "23762022", "descricao": "Vegetação - Desmatamento / Supressão de vegetação nativa", "area_ha": 0.0}}, {"type": "Feature", "geometry": {"type": "MultiPoint", "coordinates": [[-47.7888001436809, -14.186907092003]]}, "properties": {"data_infracao": "2022-08-12", "numero_processo": "23762022", "descricao": "Vegetação - Desmatamento / Supressão de vegetação nativa", "area_ha": 0.0}}, {"type": "Feature", "geometry": {"type": "MultiPoint", "coordinates": [[-47.7891063833932, -14.1869667513021]]}, "properties": {"data_infracao": "2022-08-12", "numero_processo": "23752022", "descricao": "Vegetação - Desmatamento / Supressão de vegetação nativa", "area_ha": 0.0}}, {"type": "Feature", "geometry": {"type": "MultiPoint", "coordinates": [[-47.7890032351142, -14.1868595644443]]}, "properties": {"data_infracao": "2022-08-12", "numero_processo": "23752022", "descricao": "Vegetação - Desmatamento / Supressão de vegetação nativa", "area_ha": 0.0}}, {"type": "Feature", "geometry": {"type": "MultiPoint", "coordinates": [[-47.7888636133393, -14.1867979642366]]}, "properties": {"data_infracao": "2022-08-12", "numero_processo": "23762022", "descricao": "Vegetação - Desmatamento / Supressão de vegetação nativa", "area_ha": 0.0}}, {"type": "Feature", "geometry": {"type": "MultiPoint", "coordinates": [[-47.788707578198, -14.1869081701924]]}, "properties": {"data_infracao": "2022-08-12", "numero_processo": "23762022", "descricao": "Vegetação - Desmatamento / Supressão de vegetação nativa", "area_ha": 0.0}}, {"type": "Feature", "geometry": {"type": "MultiPoint", "coordinates": [[-47.522126, -14.148033]]}, "properties": {"data_infracao": "2022-10-04", "numero_processo": "232023", "descricao": "Fogo - Fogo em vegetação nativa", "area_ha": 0.0}}, {"type": "Feature", "geometry": {"type": "MultiPoint", "coordinates": [[-47.777195, -14.17217]]}, "properties": {"data_infracao": "2022-12-16", "numero_processo": "252023", "descricao": "Poluição ou Degradação Ambiental - Implantação e/ou operação de atividade potencialmente poluidora", "area_ha": 0.0}}, {"type": "Feature", "geometry": {"type": "MultiPoint", "coordinates": [[-47.57277777777778, -14.376111111111111]]}, "properties": {"data_infracao": "2023-02-03", "numero_processo": "6822023", "autuado": "AGROPECUARIA NOVA ERA LTDA", "descricao": "Solo - Escavação / Terraplanagem", "area_ha": 0.0, "status": "Pendente de Julgamento"}}, {"type": "Feature", "geometry": {"type": "MultiPoint", "coordinates": [[-47.868726, -14.230621]]}, "properties": {"data_infracao": "2023-02-28", "numero_processo": "8182023", "descricao": "Poluição ou Degradação Ambiental - Implantação e/ou operação de atividade potencialmente poluidora", "area_ha": 0.0, "status": "Pendente de Julgamento"}}, {"type": "Feature", "geometry": {"type": "MultiPoint", "coordinates": [[-47.775608, -14.175845]]}, "properties": {"data_infracao": "2023-03-01", "numero_processo": "8052023", "descricao": "Poluição ou Degradação Ambiental - Implantação e/ou operação de atividade potencialmente poluidora", "area_ha": 0.0, "status": "Pendente de Julgamento"}}, {"type": "Feature", "geometry": {"type": "MultiPoint", "coordinates": [[-47.641921, -14.15386]]}, "properties": {"data_infracao": "2023-03-01", "numero_processo": "8202023", "descricao": "Poluição ou Degradação Ambiental - Implantação e/ou operação de atividade potencialmente poluidora", "area_ha": 0.0, "status": "Pendente de Julgamento"}}, {"type": "Feature", "geometry": {"type": "MultiPoint", "coordinates": [[-47.595626, -14.159522]]}, "properties": {"data_infracao": "2023-03-01", "numero_processo": "8542023", "autuado": "SRM PROMOCAO DE EVENTOS E APOIO ADMINISTRATIVO LTDA", "descricao": "Poluição ou Degradação Ambiental - Implantação e/ou operação de atividade potencialmente poluidora", "area_ha": 0.0, "status": "Julgado em definitivo 1ª Instância - Improcedente"}}, {"type": "Feature", "geometry": {"type": "MultiPoint", "coordinates": [[-47.499675, -14.101441]]}, "properties": {"data_infracao": "2023-03-04", "numero_processo": "8172023", "autuado": "FERNANDO DA SILVA COUTO - ME", "descricao": "Poluição ou Degradação Ambiental - Implantação e/ou operação de atividade potencialmente poluidora", "area_ha": 0.0, "status": "Pendente de Julgamento"}}, {"type": "Feature", "geometry": {"type": "MultiPoint", "coordinates": [[-47.489261, -14.14443]]}, "properties": {"data_infracao": "2023-03-04", "numero_processo": "7862023", "autuado": "POUSADA DRUIDS/DREUX LTDA.", "descricao": "Poluição ou Degradação Ambiental - Implantação e/ou operação de atividade potencialmente poluidora", "area_ha": 0.0}}, {"type": "Feature", "geometry": {"type": "MultiPoint", "coordinates": [[-47.615754, -14.158519]]}, "properties": {"data_infracao": "2023-09-15", "numero_processo": "29282023", "descricao": "Poluição ou Degradação Ambiental - Implantação e/ou operação de atividade potencialmente poluidora", "area_ha": 0.0, "status": "Pendente de Julgamento"}}, {"type": "Feature", "geometry": {"type": "MultiPoint", "coordinates": [[-47.884897642789795, -14.214281545380313]]}, "properties": {"data_infracao": "2023-09-27", "numero_processo": "26022023", "autuado": "AGENCIA GOIANA DE INFRAESTRUTURA E TRANSPORTES", "descricao": "Descumprimento de condicionantes", "area_ha": 0.0}}, {"type": "Feature", "geometry": {"type": "MultiPoint", "coordinates": [[-47.510057, -14.145869]]}, "properties": {"data_infracao": "2024-03-11", "numero_processo": "10602024", "descricao": "Poluição ou Degradação Ambiental - Implantação de loteamento/parcelamento irregular do solo", "area_ha": 0.0}}, {"type": "Feature", "geometry": {"type": "MultiPoint", "coordinates": [[-47.635583, -14.334297]]}, "properties": {"data_infracao": "2024-03-19", "numero_processo": "9972024", "descricao": "Descumprimento de condicionantes", "area_ha": 0.0}}, {"type": "Feature", "geometry": {"type": "MultiPoint", "coordinates": [[-47.52198333333333, -14.134855555555555]]}, "properties": {"data_infracao": "2024-06-11", "numero_processo": "20782024", "autuado": "POSTO DE COMBUSTIVEIS PRAIA DOS AMORES LTDA", "descricao": "Poluição ou Degradação Ambiental - Implantação e/ou operação de atividade potencialmente poluidora", "area_ha": 0.0}}, {"type": "Feature", "geometry": {"type": "MultiPoint", "coordinates": [[-47.812, -14.1769]]}, "properties": {"data_infracao": "2024-09-04", "numero_processo": "32522024", "descricao": "Solo - Outro", "area_ha": 0.0}}, {"type": "Feature", "geometry": {"type": "MultiPoint", "coordinates": [[-47.8194, -14.1768]]}, "properties": {"data_infracao": "2024-11-13", "numero_processo": "PR - 01867/2024", "descricao": "Implantação e/ou operação de atividade potencialmente poluidora", "area_ha": 0.0, "status": "Anulado"}}, {"type": "Feature", "geometry": {"type": "MultiPoint", "coordinates": [[-47.8187, -14.1766]]}, "properties": {"data_infracao": "2024-11-13", "numero_processo": "PR - 01402/2024", "autuado": "CAMPO BASE TURISMO LTDA", "descricao": "Implantação e/ou operação de atividade potencialmente poluidora", "area_ha": 0.0, "status": "Cientificado"}}, {"type": "Feature", "geometry": {"type": "MultiPoint", "coordinates": [[-47.585, -14.1903]]}, "properties": {"data_infracao": "2025-01-28", "numero_processo": "PR - 00220/2025", "descricao": "Escavação / Terraplanagem", "area_ha": 0.0, "status": "Não Cientificado"}}, {"type": "Feature", "geometry": {"type": "MultiPoint", "coordinates": [[-47.5262, -14.1041]]}, "properties": {"data_infracao": "2025-02-03", "numero_processo": "PR - 00317/2025", "autuado": "Municipio de Alto Paraiso de Goias", "descricao": "Descarte de resíduos sólidos", "area_ha": 0.0, "status": "Não Cientificado"}}, {"type": "Feature", "geometry": {"type": "MultiPoint", "coordinates": [[-47.5262, -14.1041]]}, "properties": {"data_infracao": "2025-02-03", "numero_processo": "PR - 00317/2025", "autuado": "Municipio de Alto Paraiso de Goias", "descricao": "Descarte de resíduos sólidos", "area_ha": 0.0, "status": "Não Cientificado"}}, {"type": "Feature", "geometry": {"type": "MultiPoint", "coordinates": [[-47.743742, -14.16659]]}, "properties": {"data_infracao": "2025-02-13", "numero_processo": "PR - 00415/2025", "autuado": "FAZENDA VOLTA DA SERRA LTDA", "descricao": "Implantação e/ou operação de atividade potencialmente poluidora", "area_ha": 0.0, "status": "Não Cientificado"}}, {"type": "Feature", "geometry": {"type": "MultiPoint", "coordinates": [[-47.595605, -14.159546]]}, "properties": {"data_infracao": "2025-04-01", "numero_processo": "PR - 00955/2025", "autuado": "Amora Administracao e Participacoes S/A", "descricao": "Implantação e/ou operação de atividade potencialmente poluidora", "area_ha": 0.0, "status": "Não Cientificado"}}, {"type": "Feature", "geometry": {"type": "MultiPoint", "coordinates": [[-47.621957, -14.376061], [-47.621176, -14.373783]]}, "properties": {"data_infracao": "2025-07-10", "numero_processo": "PR - 02206/2025", "descricao": "Extração mineral (areia, brita, pedra e outros)", "area_ha": 0.0, "status": "Cientificado"}}, {"type": "Feature", "geometry": {"type": "MultiPoint", "coordinates": [[-47.621957, -14.376061], [-47.621176, -14.373783]]}, "properties": {"data_infracao": "2025-07-10", "numero_processo": "PR - 02206/2025", "descricao": "Extração mineral (areia, brita, pedra e outros)", "area_ha": 0.0, "status": "Cientificado"}}, {"type": "Feature", "geometry": {"type": "MultiPoint", "coordinates": [[-47.524517, -14.101907], [-47.524558, -14.101852]]}, "properties": {"data_infracao": "2025-10-31", "numero_processo": "PR - 04002/2025", "autuado": "Cerrado Nordeste Goiano Comércio de Bebidas Ltda", "descricao": "Descarte de resíduos sólidos", "area_ha": 0.0, "status": "Não Cientificado"}}, {"type": "Feature", "geometry": {"type": "MultiPoint", "coordinates": [[-47.52412, -14.10195]]}, "properties": {"data_infracao": "2025-11-04", "numero_processo": "PR - 04002/2025", "autuado": "Cerrado Nordeste Goiano Comércio de Bebidas Ltda", "descricao": "Outros", "area_ha": 0.0, "status": "Não Cientificado"}}, {"type": "Feature", "geometry": {"type": "MultiPoint", "coordinates": [[-47.811775133013725, -14.193119485565678]]}, "properties": {"data_infracao": "2025-12-18", "numero_processo": "PR - 04756/2025", "autuado": "Brilha Prosperidade LTDA", "descricao": "Implantação e/ou operação de atividade potencialmente poluidora", "area_ha": 0.0, "status": "Cientificado"}}, {"type": "Feature", "geometry": {"type": "MultiPoint", "coordinates": [[-47.804474495351315, -14.19201044037804]]}, "properties": {"data_infracao": "2025-12-18", "numero_processo": "PR - 04755/2025", "autuado": "PE NO RIO ATRATIVO HOSPEDAGEM E GASTRONOMIA LTDA", "descricao": "Implantação e/ou operação de atividade potencialmente poluidora", "area_ha": 0.0, "status": "Cientificado"}}, {"type": "Feature", "geometry": {"type": "MultiPoint", "coordinates": [[-47.8104, -14.1951]]}, "properties": {"data_infracao": "2026-01-07", "numero_processo": "PR - 04853/2026", "descricao": "Outros", "area_ha": 0.0, "status": "Não Cientificado"}}, {"type": "Feature", "geometry": {"type": "MultiPoint", "coordinates": [[-47.845278, -14.190556]]}, "properties": {"data_infracao": "2026-04-29", "numero_processo": "PR - 06283/2026", "descricao": "Outros", "area_ha": 0.0, "status": "Não Cientificado"}}]}