{"type": "FeatureCollection", "crs": {"type": "name", "properties": {"name": "urn:ogc:def:crs:OGC:1.3:CRS84"}}, "features": [{"type": "Feature", "geometry": {"type": "Polygon", "coordinates": [[[-47.514106, -14.125951], [-47.511816, -14.124819], [-47.510339, -14.125141], [-47.510794, -14.126166], [-47.510716, -14.126637], [-47.511037, -14.128016], [-47.512432, -14.12942], [-47.512893, -14.129307], [-47.512961, -14.128755], [-47.517391, -14.126667], [-47.516756, -14.126176], [-47.515634, -14.125962], [-47.514106, -14.125951]]]}, "properties": {"tipo_licenca": "Licença de Instalação", "atividade": "LOTEAMENTO URBANO", "numero_processo": "128542017", "numero_licenca": "6022018", "data_abertura": "2017-12-13", "validade_inicio": "2018-08-01", "validade_fim": "2023-08-01", "licenciado": true}}, {"type": "Feature", "geometry": {"type": "Polygon", "coordinates": [[[-47.524973, -14.108999], [-47.524624, -14.112642], [-47.529904, -14.111038], [-47.5292, -14.107968], [-47.524973, -14.108999]]]}, "properties": {"tipo_licenca": "Licença de Instalação", "atividade": "LOTEAMENTO URBANO", "numero_processo": "21412018", "numero_licenca": "1272020", "data_abertura": "2018-03-15", "validade_inicio": "2020-03-10", "validade_fim": "2026-03-10", "licenciado": true}}, {"type": "Feature", "geometry": {"type": "Polygon", "coordinates": [[[-47.494897, -14.267926], [-47.495271, -14.26747], [-47.495082, -14.266226], [-47.494671, -14.266826], [-47.494897, -14.267926]]]}, "properties": {"tipo_licenca": "Licenças de Instalação e Funcionamento", "atividade": "EXTRAÇÃO DE CASCALHO", "numero_processo": "57442018", "numero_licenca": "1352021", "data_abertura": "2018-07-06", "validade_inicio": "2021-03-16", "validade_fim": "2027-03-16", "licenciado": true}}, {"type": "Feature", "geometry": {"type": "Polygon", "coordinates": [[[-47.523744, -14.135356], [-47.524064, -14.135342], [-47.524075, -14.135069], [-47.523764, -14.135083], [-47.523744, -14.135356]]]}, "properties": {"tipo_licenca": "Licença de Funcionamento", "atividade": "FABRICAÇÃO DE PRODUTOS ALIMENTARES NÃO ESPECIFICADOS", "numero_processo": "32012019", "numero_licenca": "1152022", "data_abertura": "2019-05-13", "validade_inicio": "2022-04-25", "validade_fim": "2027-04-25", "licenciado": true}}, {"type": "Feature", "geometry": {"type": "Polygon", "coordinates": [[[-47.52836724205212, -14.11936393894516], [-47.5357055054702, -14.12114684560847], [-47.5362290929495, -14.11929354790115], [-47.52464760194349, -14.11648475975797], [-47.52420424460469, -14.11835153442704], [-47.52660623633941, -14.11893921849625], [-47.52635877490017, -14.11993901007139], [-47.52813262203851, -14.12037737605879], [-47.52836724205212, -14.11936393894516]]]}, "properties": {"tipo_licenca": "Licença de Funcionamento (Renovação)", "atividade": "OBRA DE ENGENHARIA", "numero_processo": "25572021", "numero_licenca": "1032023", "data_abertura": "2021-08-02", "validade_inicio": "2023-05-10", "validade_fim": "2028-05-10", "licenciado": true}}, {"type": "Feature", "geometry": {"type": "Polygon", "coordinates": [[[-47.625832, -14.298885], [-47.625665, -14.298887], [-47.625334, -14.29908], [-47.624879, -14.298932], [-47.624639, -14.29907], [-47.624548, -14.299225], [-47.62482, -14.299475], [-47.625711, -14.299582], [-47.625937, -14.299101], [-47.625832, -14.298885]]]}, "properties": {"tipo_licenca": "Licença de Instalação", "atividade": "EXTRAÇÃO DE CASCALHO", "numero_processo": "27902021", "numero_licenca": "1932022", "data_abertura": "2021-08-20", "validade_inicio": "2022-06-14", "validade_fim": "2028-06-14", "licenciado": true}}, {"type": "Feature", "geometry": {"type": "MultiPolygon", "coordinates": [[[[-47.232739885482, -14.142793491039374], [-47.2346069701804, -14.1415831258958], [-47.2364789219409, -14.1408247745971], [-47.2369004836125, -14.1410715090343], [-47.2369576326684, -14.1409785265594], [-47.2364644155592, -14.1406898530118], [-47.234596239055, -14.1414599131056], [-47.23265881965637, -14.142715874344567], [-47.232739885482, -14.142793491039374]]], [[[-47.895193386059, -14.246802747859837], [-47.8942096866376, -14.2465653434406], [-47.894182999827, -14.2466705418355], [-47.89512918293366, -14.246898891935988], [-47.895193386059, -14.246802747859837]]], [[[-47.5892478124394, -14.368011938062], [-47.5891740176467, -14.3668800005229], [-47.5890630348213, -14.3668866485599], [-47.5891278793684, -14.3679154022608], [-47.5843999822954, -14.3684071552657], [-47.5835903595263, -14.3670737444913], [-47.5834946726446, -14.3671289579978], [-47.5843508187025, -14.368538990634], [-47.5892478124394, -14.368011938062]]], [[[-47.6269119421182, -14.3570053425187], [-47.626921180213, -14.357113360775], [-47.6279738670486, -14.3570277922831], [-47.6279646284661, -14.3569197741526], [-47.6269119421182, -14.3570053425187]]], [[[-47.6265644150929, -14.349752870407], [-47.6266508429551, -14.3496846857346], [-47.6263196870037, -14.34928570968], [-47.6262332591512, -14.3493538942245], [-47.6265644150929, -14.349752870407]]], [[[-47.6035968243006, -14.3645078343653], [-47.6037052146616, -14.3644836645824], [-47.6031397014096, -14.3620734529418], [-47.6063247878171, -14.3610339831682], [-47.6062894905924, -14.360931195389], [-47.6000590922667, -14.3629743320572], [-47.5991544648778, -14.3632151457542], [-47.5990624090081, -14.3629004506325], [-47.5989554824816, -14.3629301768793], [-47.5990447789043, -14.3632475659423], [-47.5972279191004, -14.3638319402777], [-47.597120028482, -14.3634664364959], [-47.5970131748709, -14.3634964123662], [-47.5971544395115, -14.3639688323007], [-47.603033753693, -14.3621080294202], [-47.6035968243006, -14.3645078343653]]], [[[-47.7213708458475, -14.3362903632131], [-47.7213064526201, -14.3362020132197], [-47.719057799385, -14.3377599495222], [-47.7146242232051, -14.3346712967942], [-47.7145595944024, -14.3347594835289], [-47.7190445986085, -14.3379020588897], [-47.7213708458475, -14.3362903632131]]], [[[-47.7056858438354, -14.3096271656527], [-47.7056929300249, -14.3095189992409], [-47.7045349394343, -14.309446864147], [-47.704527852679, -14.309555030622], [-47.7056858438354, -14.3096271656527]]], [[[-47.4184826243454, -14.2868498901687], [-47.4184898418451, -14.2869580714851], [-47.4231988484325, -14.2866592416167], [-47.423191628736, -14.2865510607945], [-47.4184826243454, -14.2868498901687]]], [[[-47.5969129941625, -14.32696132597], [-47.5969459573819, -14.3270648472338], [-47.6006288766707, -14.3259443729163], [-47.6005956336472, -14.3258409371028], [-47.5969129941625, -14.32696132597]]], [[[-47.6208649470852, -14.346713239187], [-47.6216291565056, -14.3458322323744], [-47.6215453912908, -14.3457609601097], [-47.6208079527899, -14.3465847727955], [-47.6198368042546, -14.3463158146845], [-47.6198064236715, -14.3464200830551], [-47.6208649470852, -14.346713239187]]], [[[-47.4399435534225, -14.2631315638837], [-47.4389475699629, -14.2643320033415], [-47.4390339773843, -14.264400197281], [-47.4399831373845, -14.2632561929246], [-47.4422905055089, -14.2627145535613], [-47.4422644949214, -14.262609155113], [-47.4399435534225, -14.2631315638837]]], [[[-47.4325088926928, -14.2615418268573], [-47.4325453612341, -14.2614394186387], [-47.429104640643, -14.2602683492408], [-47.4263717439171, -14.2596355345067], [-47.4263460679038, -14.2597410121514], [-47.429022153932, -14.26036067228], [-47.4325088926928, -14.2615418268573]]], [[[-47.427042311579, -14.2455351309302], [-47.4271452264575, -14.2454941899845], [-47.4264211694976, -14.2437625762468], [-47.4263182551702, -14.2438035167813], [-47.427042311579, -14.2455351309302]]], [[[-47.4913139838526, -14.2902068392958], [-47.4914226081421, -14.2901838072242], [-47.4900405059577, -14.2839846861229], [-47.4888440593283, -14.2777472510371], [-47.4887347981695, -14.2777671835832], [-47.4889370758302, -14.2788217561777], [-47.4748927372561, -14.2738925846031], [-47.4729914444512, -14.2704593011547], [-47.4728936427129, -14.2705108161037], [-47.474831440029, -14.2740100190573], [-47.4889607692378, -14.2789452805692], [-47.4899416110981, -14.28405867439], [-47.4913139838526, -14.2902068392958]]], [[[-47.6229491343115, -14.2087018064332], [-47.6237161910317, -14.2066317109367], [-47.6236120814156, -14.2065938432968], [-47.6228359628289, -14.2086245747099], [-47.6208696026803, -14.2092696660573], [-47.6209050188088, -14.2093724070808], [-47.6229491343115, -14.2087018064332]]], [[[-47.5818941431126, -14.2131978378514], [-47.5835246624498, -14.2149920590496], [-47.5836078104242, -14.2149201506054], [-47.5820181606938, -14.2131709033128], [-47.5811510069251, -14.2116527382801], [-47.578336379162, -14.2108983207544], [-47.5782679523828, -14.2104473386841], [-47.5757031408907, -14.2104245809606], [-47.5751668528727, -14.2092442632441], [-47.5750781943356, -14.2081056536248], [-47.5755329101022, -14.2081554357026], [-47.5759226000457, -14.208928168722], [-47.576022302908, -14.2088803171929], [-47.575663980654, -14.208169785332], [-47.5762112871162, -14.2082297040531], [-47.5762236788887, -14.2081219818558], [-47.5750696279109, -14.207995636818], [-47.5749132096288, -14.2059867490527], [-47.5753007460898, -14.2057666025275], [-47.575244833094, -14.2056729280489], [-47.5747955706034, -14.2059070590289], [-47.5750388746902, -14.2092300973438], [-47.5756105648318, -14.2105318801683], [-47.5781731016603, -14.2105625187647], [-47.578239854545, -14.2110024694343], [-47.5810922020323, -14.2117724849816], [-47.5818941431126, -14.2131978378514]]], [[[-47.6258962795771, -14.2065285068881], [-47.6257852531816, -14.2065242975913], [-47.6255940303487, -14.211324625352], [-47.625705059118, -14.2113288343334], [-47.6258962795771, -14.2065285068881]]], [[[-47.8859678060443, -14.237537051494], [-47.8860935142771, -14.2366991986038], [-47.8870184406407, -14.2362485843057], [-47.8869687970038, -14.2361516330219], [-47.8859982734066, -14.2366003494007], [-47.8858426894609, -14.237478826371], [-47.8852613133704, -14.237777353687], [-47.884368563643, -14.2370632557538], [-47.8832873888257, -14.2372550195702], [-47.8833072650032, -14.2373616432155], [-47.88430915094, -14.2371839426413], [-47.8852319996493, -14.2379148763989], [-47.8859678060443, -14.237537051494]]], [[[-47.8118376738119, -14.1957050409044], [-47.8118827710881, -14.1958040872978], [-47.8165620147978, -14.1937761827866], [-47.8165169162283, -14.1936771375635], [-47.8118376738119, -14.1957050409044]]], [[[-47.8116896978027, -14.195288610458], [-47.8116452200084, -14.1951892978221], [-47.8109270975476, -14.1954954128176], [-47.8104765541019, -14.1951062645412], [-47.810402916397, -14.1951874111114], [-47.8109216040833, -14.19563541752], [-47.8116896978027, -14.195288610458]]], [[[-47.6186874851151, -14.1936069667776], [-47.6186661232921, -14.1937133394566], [-47.6191197690121, -14.1938000512294], [-47.6191411306165, -14.1936936785456], [-47.6186874851151, -14.1936069667776]]], [[[-47.5764205366792, -14.1923534991539], [-47.5765316437409, -14.192353764108], [-47.5765349690464, -14.191026618984], [-47.5739454970609, -14.1882564375563], [-47.5738629585167, -14.1883290019062], [-47.5764236744078, -14.1911014467207], [-47.5764205366792, -14.1923534991539]]], [[[-47.6268221205296, -14.1902246030326], [-47.6251379260784, -14.1898789826125], [-47.6240187915103, -14.1898929646532], [-47.6230196857682, -14.1897701104548], [-47.6222745655302, -14.1891593966385], [-47.622203100952, -14.1892423912794], [-47.6230032937682, -14.1898982433941], [-47.6240638277872, -14.1900077545447], [-47.6250787057008, -14.1899881260767], [-47.62679658803, -14.1903300963084], [-47.6268221205296, -14.1902246030326]]], [[[-47.8350775593436, -14.1908824761808], [-47.8348456509806, -14.1914526829722], [-47.8380685474343, -14.1925854362011], [-47.8381061966791, -14.1924834742067], [-47.8349896785733, -14.1913881105265], [-47.8351806824444, -14.1909227653881], [-47.8350775593436, -14.1908824761808]]], [[[-47.795963307473, -14.1934780577796], [-47.7966340332612, -14.1922534933002], [-47.7965364752089, -14.1922016562366], [-47.7958391939213, -14.1934507338208], [-47.7951566162248, -14.1941930681302], [-47.7952393083797, -14.1942654403355], [-47.795963307473, -14.1934780577796]]], [[[-47.8230822166562, -14.1777588299632], [-47.8231931437336, -14.1777531647613], [-47.823175738282, -14.1774287321429], [-47.8230648113591, -14.1774343973076], [-47.8230822166562, -14.1777588299632]]], [[[-47.7449749067792, -14.1618871212956], [-47.7449846786986, -14.1617791567918], [-47.7417966330642, -14.1615044071047], [-47.7399592428115, -14.1600132219281], [-47.7398882124231, -14.1600965505853], [-47.7417816449321, -14.1616332179941], [-47.7449749067792, -14.1618871212956]]], [[[-47.6303586533071, -14.1678580931497], [-47.6294397855616, -14.167918335285], [-47.6294449515414, -14.1680266124077], [-47.6303054424616, -14.1679875251723], [-47.6308342908269, -14.1689125889808], [-47.6309313091093, -14.16885978493], [-47.6303586533071, -14.1678580931497]]], [[[-47.5094087741741, -14.1473794448714], [-47.5095197244054, -14.1473848991094], [-47.5096314133265, -14.14522149128], [-47.5095204641618, -14.1452160369195], [-47.5094969612525, -14.1456712802673], [-47.507950767987, -14.1450451781528], [-47.5079081896557, -14.1451453039702], [-47.5094910260268, -14.1457862437629], [-47.5094087741741, -14.1473794448714]]], [[[-47.5135595885301, -14.1528804646703], [-47.5136359931286, -14.1528017693713], [-47.510728335597, -14.1500864799023], [-47.5087978694043, -14.150611499922], [-47.5076486576296, -14.1513699751598], [-47.5077108972243, -14.151459769178], [-47.5088063990058, -14.1507367423102], [-47.5106762841407, -14.1502149332202], [-47.5135595885301, -14.1528804646703]]], [[[-47.606787380973, -14.1567802153219], [-47.6068086662423, -14.1566738274134], [-47.6060618812393, -14.1565315666175], [-47.6060405956112, -14.1566379545183], [-47.606787380973, -14.1567802153219]]], [[[-47.4959795492681, -14.1328276670516], [-47.4960903262633, -14.1328196008919], [-47.4960297085983, -14.132026780078], [-47.4959189319755, -14.1320348461473], [-47.4959795492681, -14.1328276670516]]], [[[-47.4977921276625, -14.1383985347658], [-47.4977100445057, -14.138471579183], [-47.4985095316167, -14.1393271293076], [-47.4985916147307, -14.1392540846131], [-47.4977921276625, -14.1383985347658]]], [[[-47.5387395294246, -14.1406889005286], [-47.5387602091686, -14.1408084056873], [-47.5402643220789, -14.1397361161016], [-47.5415994935261, -14.139646226229], [-47.5415918475786, -14.1395380815994], [-47.5402726884307, -14.1396254310617], [-47.5397944470777, -14.1388302050374], [-47.5392609990897, -14.1381670634078], [-47.5379353363881, -14.1370504988033], [-47.5378627551542, -14.1371325612125], [-47.539142521688, -14.1382104693829], [-47.5396706438316, -14.1388528448481], [-47.5401700249048, -14.1396690934277], [-47.5387395294246, -14.1406889005286]]], [[[-47.5004129841887, -14.1404556593599], [-47.4999164711151, -14.1395817109749], [-47.5000578441695, -14.1392315570063], [-47.4999544891789, -14.1391918190761], [-47.4997831506894, -14.1396161910597], [-47.5003547009188, -14.1405766445565], [-47.5042945832544, -14.1414535454366], [-47.5039741329012, -14.1429511487715], [-47.5040828768166, -14.1429733063424], [-47.5048247407602, -14.1396984852578], [-47.5056003310719, -14.1400963719315], [-47.5060734812714, -14.1397178663647], [-47.5060030548031, -14.1396340311822], [-47.5056007065552, -14.1399558973794], [-47.5048570965434, -14.139593072353], [-47.5054979450875, -14.1382062632233], [-47.5053966784366, -14.138161700315], [-47.5047152903683, -14.13963623575], [-47.5043230127825, -14.1413487043683], [-47.5004129841887, -14.1404556593599]]], [[[-47.3174953661864, -14.0757936247658], [-47.3175847711795, -14.0757292928337], [-47.3146737207787, -14.0718744503456], [-47.314584316123, -14.0719387811114], [-47.3174953661864, -14.0757936247658]]], [[[-47.3177140459257, -14.0707691965915], [-47.3176415778661, -14.0708513590528], [-47.3194945037815, -14.0724086013683], [-47.31956697149, -14.072326438386], [-47.3177140459257, -14.0707691965915]]], [[[-47.4669396930579, -14.0686329207013], [-47.466834029862, -14.0686662926138], [-47.4670231649245, -14.0692369194305], [-47.4671288283269, -14.0692035473981], [-47.4669396930579, -14.0686329207013]]], [[[-47.2282357991017, -14.1011564881576], [-47.2282531666905, -14.101049396003], [-47.2261520477269, -14.1007247878153], [-47.2240458269174, -14.0924929860095], [-47.2147429368659, -14.0888616181634], [-47.209351730374, -14.0890593635796], [-47.2093559005966, -14.08916771396], [-47.2146798210902, -14.0889724369184], [-47.2239583880617, -14.0925987447507], [-47.2260435168681, -14.1008177955891], [-47.2282357991017, -14.1011564881576]]], [[[-47.2703071667735, -14.0993559549888], [-47.2721607923863, -14.0989383173667], [-47.2721318535571, -14.098833638718], [-47.2717371437474, -14.0989375879823], [-47.2714865588599, -14.0986833188222], [-47.2714064984734, -14.0987584812633], [-47.2716108815692, -14.0989658694613], [-47.2703602960935, -14.0992335821662], [-47.2691276963415, -14.0984525255146], [-47.2690672060815, -14.0985434634716], [-47.2703071667735, -14.0993559549888]]], [[[-47.2738264256972, -14.0997196604946], [-47.2739343291183, -14.0997454266797], [-47.273965149272, -14.0996224735968], [-47.2735171040489, -14.0988926554473], [-47.2734203438764, -14.0989459132882], [-47.2738264256972, -14.0997196604946]]], [[[-47.5358759681527, -14.0958430886032], [-47.5357828253408, -14.0959021335404], [-47.5368177081511, -14.0974573385265], [-47.5369108511874, -14.0973982931341], [-47.5358759681527, -14.0958430886032]]], [[[-47.2758516940551, -14.0992477840778], [-47.2759624847515, -14.0992556773706], [-47.275996680833, -14.0987984380251], [-47.2758858903614, -14.0987905447147], [-47.2758516940551, -14.0992477840778]]], [[[-47.440632254286, -14.1058686921706], [-47.440957297893, -14.1067261433451], [-47.44106147301, -14.1066885257805], [-47.4407631282908, -14.1059015063316], [-47.441303581825, -14.1045862707751], [-47.4410092368895, -14.103617918471], [-47.4402927474452, -14.1030196544654], [-47.439938356284, -14.1029407405371], [-47.4399136494882, -14.1030464345634], [-47.4402004840079, -14.1031103053648], [-47.440921223409, -14.1037147978087], [-47.4411728690784, -14.1046131306727], [-47.440632254286, -14.1058686921706]]], [[[-47.5807892548345, -14.2001744837646], [-47.5809828879863, -14.1997402748346], [-47.5846276081707, -14.1997040155459], [-47.5846264743324, -14.1995956234098], [-47.5801910436825, -14.1996397413513], [-47.5801921754146, -14.1997481338659], [-47.5808585527702, -14.1997415107973], [-47.5806885879182, -14.2000801587438], [-47.5794643283128, -14.2002674079661], [-47.579481537447, -14.200374498108], [-47.5807892548345, -14.2001744837646]]], [[[-47.5884656858795, -14.1999215429042], [-47.5886007341535, -14.1992429004339], [-47.5884922552223, -14.1992194517896], [-47.5883521616654, -14.1998363002811], [-47.5874948741859, -14.2000336299253], [-47.5875203887301, -14.2001391308018], [-47.5884656858795, -14.1999215429042]]], [[[-47.8168505678796, -14.1973946819489], [-47.8167975922778, -14.1976177845136], [-47.8169046896667, -14.1976465763686], [-47.8169432336361, -14.1975101160642], [-47.8225220980022, -14.1979245444186], [-47.8228462391741, -14.1965906828306], [-47.8227381472392, -14.1965656816914], [-47.8224377494933, -14.1978018353631], [-47.8211080662184, -14.197704949807], [-47.8215336146271, -14.1962361206618], [-47.8214267146552, -14.1962066425739], [-47.8209950117847, -14.1976967119], [-47.8168505678796, -14.1973946819489]]], [[[-47.8431171483134, -14.2049276884304], [-47.8463579575768, -14.2057961902228], [-47.8475614903782, -14.2048035464141], [-47.8474897680759, -14.2047207849177], [-47.8463506689896, -14.2056602853678], [-47.8432072795802, -14.2048394985421], [-47.8416433320929, -14.2039422982627], [-47.8395497121212, -14.2009263520874], [-47.8390798659357, -14.199656344499], [-47.8383478054866, -14.1985477382661], [-47.8382891206892, -14.195094676589], [-47.838178049917, -14.19509647306], [-47.838215887778, -14.1985470601633], [-47.8389962953144, -14.1997496850118], [-47.8394664690907, -14.201020578666], [-47.8415891866969, -14.2040579656799], [-47.8431171483134, -14.2049276884304]]], [[[-47.294500274355, -14.0455199679046], [-47.2945073383941, -14.0456281695276], [-47.3050030963614, -14.0449748703305], [-47.3049960275059, -14.04486666976], [-47.294500274355, -14.0455199679046]]], [[[-47.4503191091867, -14.0642880938834], [-47.4491756220138, -14.0649449283056], [-47.4492319434328, -14.0650383622002], [-47.4503073438018, -14.0644206378142], [-47.4507434285062, -14.0645375350807], [-47.4506479020039, -14.0648587771467], [-47.4507544794081, -14.0648892518854], [-47.4508530831648, -14.0645637012486], [-47.451214791425, -14.0646357692881], [-47.4518198893272, -14.0636458688957], [-47.4523151353184, -14.063579482061], [-47.4523000270097, -14.063472080655], [-47.4517237687599, -14.0635493268944], [-47.4511445340368, -14.064511126527], [-47.4503191091867, -14.0642880938834]]], [[[-47.4606907795348, -14.0633932402428], [-47.4607998498958, -14.0634136390384], [-47.4609085142744, -14.0628599710657], [-47.461535472219, -14.0627827345833], [-47.4617213313271, -14.0612704354743], [-47.4616111751037, -14.0612566864222], [-47.4614238063026, -14.0626872226308], [-47.4607995228803, -14.0627641293316], [-47.4606907795348, -14.0633932402428]]], [[[-47.3196230945195, -14.0691785072595], [-47.3195555751676, -14.0692645925881], [-47.320435761806, -14.0699224137657], [-47.3205032809418, -14.0698363282159], [-47.3196230945195, -14.0691785072595]]], [[[-47.4681834333767, -14.0678251318558], [-47.4682935830413, -14.0678113129186], [-47.46823830256, -14.0673914352632], [-47.4681281530848, -14.0674052541432], [-47.4681834333767, -14.0678251318558]]]]}, "properties": {"tipo_licenca": "Licença Ambiental Simplificada", "atividade": "LINHA DE DISTRIBUIÇÃO RURAL", "numero_processo": "109092018", "numero_licenca": "12020", "data_abertura": "2018-12-17", "validade_inicio": "2020-01-10", "validade_fim": "2030-01-10", "licenciado": true}}]}