{"type": "FeatureCollection", "crs": {"type": "name", "properties": {"name": "urn:ogc:def:crs:OGC:1.3:CRS84"}}, "features": [{"type": "Feature", "geometry": {"type": "LineString", "coordinates": [[-47.511870272429, -14.1433732611625], [-47.5075545922114, -14.1407255868513], [-47.5069874056301, -14.1410314110139], [-47.5063822485217, -14.1427536899719], [-47.5111009790783, -14.1439833855153], [-47.5113715668484, -14.1439044845229], [-47.511870272429, -14.1433732611625]]}, "properties": {"tipo_licenca": "Licença de Instalação", "atividade": "LOTEAMENTO URBANO", "numero_processo": "49852019", "numero_licenca": "792021", "data_abertura": "2019-07-24", "validade_inicio": "2021-02-16", "validade_fim": "2026-12-04", "licenciado": true}}, {"type": "Feature", "geometry": {"type": "LineString", "coordinates": [[-47.51187027242899, -14.14337326116251], [-47.50755459221145, -14.14072558685134], [-47.50698740563009, -14.14103141101395], [-47.5063822485217, -14.14275368997192], [-47.51110097907834, -14.14398338551528], [-47.5113715668484, -14.14390448452289], [-47.51187027242899, -14.14337326116251]]}, "properties": {"tipo_licenca": "Licença de Instalação", "atividade": "LOTEAMENTO URBANO", "numero_processo": "49852019", "numero_licenca": "7742020", "data_abertura": "2019-07-24", "validade_inicio": "2020-12-04", "validade_fim": "2026-12-04", "licenciado": true}}]}