{"type": "FeatureCollection", "crs": {"type": "name", "properties": {"name": "urn:ogc:def:crs:OGC:1.3:CRS84"}}, "features": [{"type": "Feature", "geometry": {"type": "MultiPoint", "coordinates": [[-47.815972, -14.177245]]}, "properties": {"tipo_licenca": "Licença Ambiental Simplificada", "atividade": "PAVIMENTAÇÃO DE VIAS URBANAS", "numero_processo": "90172017", "numero_licenca": "1942018", "data_abertura": "2017-08-28", "validade_inicio": "2018-03-15", "validade_fim": "2022-03-15", "licenciado": true}}, {"type": "Feature", "geometry": {"type": "MultiPoint", "coordinates": [[-47.51756944444444, -14.142947222222222]]}, "properties": {"tipo_licenca": "Licença Ambiental Simplificada", "atividade": "PRODUÇÃO DE ÓLEOS E GORDURAS DE ORIGEM VEGETAL OU ANIMAL", "numero_processo": "142452013", "numero_licenca": "3922018", "data_abertura": "2013-09-04", "validade_inicio": "2018-05-17", "validade_fim": "2022-05-17", "licenciado": true}}, {"type": "Feature", "geometry": {"type": "MultiPoint", "coordinates": [[-47.52256666666666, -14.138552777777777]]}, "properties": {"tipo_licenca": "Licenças de Instalação e Funcionamento", "atividade": "COMÉRCIO VAREJISTA DE COMBUSTÍVEIS E LUBRIFICANTES PARA VEÍCULOS AUTOMOTORES", "numero_processo": "153722015", "numero_licenca": "8962018", "data_abertura": "2017-07-14", "validade_inicio": "2018-11-19", "validade_fim": "2022-11-19", "licenciado": true}}, {"type": "Feature", "geometry": {"type": "MultiPoint", "coordinates": [[-47.50365, -14.3401]]}, "properties": {"tipo_licenca": "Licença Prévia", "atividade": "ESTAÇÃO RÁDIO BASE", "numero_processo": "71892017", "numero_licenca": "2652018", "data_abertura": "2017-07-13", "validade_inicio": "2018-04-06", "validade_fim": "2023-04-06", "licenciado": true}}, {"type": "Feature", "geometry": {"type": "MultiPoint", "coordinates": [[-47.52191111111111, -14.134827777777778]]}, "properties": {"tipo_licenca": "Licença Prévia", "atividade": "COMÉRCIO VAREJISTA DE COMBUSTÍVEIS E LUBRIFICANTES PARA VEÍCULOS AUTOMOTORES", "numero_processo": "11952018", "numero_licenca": "3942018", "data_abertura": "2018-02-15", "validade_inicio": "2018-05-17", "validade_fim": "2023-05-17", "licenciado": true}}, {"type": "Feature", "geometry": {"type": "MultiPoint", "coordinates": [[-47.5219111111111, -14.134827777777]]}, "properties": {"tipo_licenca": "Licenças de Instalação e Funcionamento", "atividade": "COMÉRCIO VAREJISTA DE COMBUSTÍVEIS E LUBRIFICANTES PARA VEÍCULOS AUTOMOTORES", "numero_processo": "11962018", "numero_licenca": "1802020", "data_abertura": "2018-02-15", "validade_inicio": "2020-08-23", "validade_fim": "2023-08-23", "licenciado": true}}, {"type": "Feature", "geometry": {"type": "MultiPoint", "coordinates": [[-47.5219111111111, -14.134827777777]]}, "properties": {"tipo_licenca": "Licenças de Instalação e Funcionamento", "atividade": "COMÉRCIO VAREJISTA DE COMBUSTÍVEIS E LUBRIFICANTES PARA VEÍCULOS AUTOMOTORES", "numero_processo": "11962018", "numero_licenca": "2862019", "data_abertura": "2018-02-15", "validade_inicio": "2019-08-23", "validade_fim": "2023-08-23", "licenciado": true}}, {"type": "Feature", "geometry": {"type": "MultiPoint", "coordinates": [[-47.52096111111111, -14.142183333333334]]}, "properties": {"tipo_licenca": "Licença Prévia", "atividade": "COMÉRCIO VAREJISTA DE COMBUSTÍVEIS E LUBRIFICANTES PARA VEÍCULOS AUTOMOTORES", "numero_processo": "132122017", "numero_licenca": "9882018", "data_abertura": "2017-12-27", "validade_inicio": "2018-12-12", "validade_fim": "2023-12-12", "licenciado": true}}, {"type": "Feature", "geometry": {"type": "MultiPoint", "coordinates": [[-47.815972, -14.177245]]}, "properties": {"tipo_licenca": "Licença de Instalação", "atividade": "GALERIA PLUVIAL", "numero_processo": "51582017", "numero_licenca": "1922018", "data_abertura": "2017-06-01", "validade_inicio": "2018-03-15", "validade_fim": "2024-03-15", "licenciado": true}}, {"type": "Feature", "geometry": {"type": "MultiPoint", "coordinates": [[-47.50375, -14.34015]]}, "properties": {"tipo_licenca": "Licença de Instalação", "atividade": "ESTAÇÃO RÁDIO BASE", "numero_processo": "71902017", "numero_licenca": "2702018", "data_abertura": "2017-07-13", "validade_inicio": "2018-04-09", "validade_fim": "2024-04-09", "licenciado": true}}, {"type": "Feature", "geometry": {"type": "MultiPoint", "coordinates": [[-47.52191111111111, -14.134827777777778]]}, "properties": {"tipo_licenca": "Licenças de Instalação e Funcionamento", "atividade": "COMÉRCIO VAREJISTA DE COMBUSTÍVEIS E LUBRIFICANTES PARA VEÍCULOS AUTOMOTORES", "numero_processo": "11962018", "numero_licenca": "4002018", "data_abertura": "2018-02-15", "validade_inicio": "2018-05-17", "validade_fim": "2024-05-17", "licenciado": true}}, {"type": "Feature", "geometry": {"type": "MultiPoint", "coordinates": [[-47.520966666666666, -14.144708333333332]]}, "properties": {"tipo_licenca": "Licença Prévia", "atividade": "COMÉRCIO VAREJISTA DE COMBUSTÍVEIS E LUBRIFICANTES PARA VEÍCULOS AUTOMOTORES", "numero_processo": "88052018", "numero_licenca": "2682019", "data_abertura": "2018-09-28", "validade_inicio": "2019-08-12", "validade_fim": "2024-08-12", "licenciado": true}}, {"type": "Feature", "geometry": {"type": "MultiPoint", "coordinates": [[-47.52256666666666, -14.138552777777777]]}, "properties": {"tipo_licenca": "Licenças de Instalação e Funcionamento", "atividade": "COMÉRCIO VAREJISTA DE COMBUSTÍVEIS E LUBRIFICANTES PARA VEÍCULOS AUTOMOTORES", "numero_processo": "153722015", "numero_licenca": "8952018", "data_abertura": "2017-07-14", "validade_inicio": "2018-11-19", "validade_fim": "2024-11-19", "licenciado": true}}, {"type": "Feature", "geometry": {"type": "MultiPoint", "coordinates": [[-47.52155, -14.141636111111112], [-47.52439722222222, -14.13551388888889], [-47.52441111111111, -14.135455555555556]]}, "properties": {"tipo_licenca": "Licença Ambiental Simplificada", "atividade": "FABRICAÇÃO DE MASSAS, BISCOITOS, BALAS E OUTROS", "numero_processo": "59522018", "numero_licenca": "1342021", "data_abertura": "2018-07-16", "validade_inicio": "2021-03-16", "validade_fim": "2025-03-16", "licenciado": true}}, {"type": "Feature", "geometry": {"type": "MultiPoint", "coordinates": [[-47.520212173658365, -14.154557088334183]]}, "properties": {"tipo_licenca": "Licença Prévia", "atividade": "COMÉRCIO VAREJISTA DE COMBUSTÍVEIS E LUBRIFICANTES PARA VEÍCULOS AUTOMOTORES", "numero_processo": "59722019", "numero_licenca": "4112020", "data_abertura": "2019-09-02", "validade_inicio": "2020-07-08", "validade_fim": "2025-07-08", "licenciado": true}}, {"type": "Feature", "geometry": {"type": "MultiPoint", "coordinates": [[-47.520375, -14.150863888888889]]}, "properties": {"tipo_licenca": "Licença de Instalação", "atividade": "COMÉRCIO VAREJISTA DE COMBUSTÍVEIS E LUBRIFICANTES PARA VEÍCULOS AUTOMOTORES", "numero_processo": "57912019", "numero_licenca": "3862020", "data_abertura": "2019-08-26", "validade_inicio": "2020-06-30", "validade_fim": "2026-06-30", "licenciado": true}}, {"type": "Feature", "geometry": {"type": "MultiPoint", "coordinates": [[-47.52364722222222, -14.135208333333333]]}, "properties": {"tipo_licenca": "Licença de Funcionamento (Renovação)", "atividade": "FABRICAÇÃO DE ARTIGOS DE PERFUMARIA, COSMÉTICOS E HIGIENE PESSOAL", "numero_processo": "13152021", "numero_licenca": "1302022", "data_abertura": "2021-04-12", "validade_inicio": "2022-05-03", "validade_fim": "2027-05-03", "licenciado": true}}, {"type": "Feature", "geometry": {"type": "MultiPoint", "coordinates": [[-47.5128111111111, -14.1363416666667]]}, "properties": {"tipo_licenca": "Licença Prévia", "atividade": "ESTAÇÃO RÁDIO BASE", "numero_processo": "82172017", "numero_licenca": "362024", "data_abertura": "2017-08-03", "validade_inicio": "2024-03-25", "validade_fim": "2029-03-25", "licenciado": true}}, {"type": "Feature", "geometry": {"type": "MultiPoint", "coordinates": [[-47.50775, -14.155416666666667]]}, "properties": {"tipo_licenca": "Licença de Funcionamento (Renovação)", "atividade": "ESTAÇÃO RÁDIO BASE", "numero_processo": "127012012", "numero_licenca": "1102021", "data_abertura": "2012-09-04", "validade_inicio": "2021-03-04", "validade_fim": "2031-03-04", "licenciado": true}}, {"type": "Feature", "geometry": {"type": "MultiPoint", "coordinates": [[-47.52647777777778, -14.396230555555555]]}, "properties": {"tipo_licenca": "Licença de Funcionamento", "atividade": "SUBESTAÇÃO", "numero_processo": "22302020", "numero_licenca": "3372021", "data_abertura": "2020-07-23", "validade_inicio": "2021-07-27", "validade_fim": "2031-07-27", "licenciado": true}}]}